GLOBALSTAR M024         
1 25883U 99043A   24350.72276568 -.00000005  00000+0  21139-2 0  9991
2 25883  52.0030  74.5797 0002226 145.8152  25.5812 11.10162701 94483
GLOBALSTAR M027         
1 25884U 99043B   24350.84625886 -.00000118  00000+0 -20570-2 0  9990
2 25884  52.0175 147.0891 0022117  57.7870 302.5064 11.04371191120984
GLOBALSTAR M054         
1 25885U 99043C   24350.91360924  .00000054  00000+0  31970-2 0  9991
2 25885  52.0157 304.9978 0005621 225.8296 168.8833 11.39209356 98168
GLOBALSTAR M053         
1 25886U 99043D   24350.85717911 -.00000009  00000+0  17471-2 0  9998
2 25886  51.9971 242.0562 0004007 113.8497 336.4112 11.27661364 98765
GLOBALSTAR M058         
1 25907U 99049A   24350.93492981 -.00000152  00000+0 -90433-3 0  9994
2 25907  51.9930 238.5053 0001125 318.6773  41.3976 11.93191155519665
GLOBALSTAR M050         
1 25908U 99049B   24350.85964576 -.00000096  00000+0 -85752-4 0  9996
2 25908  51.9988 260.0784 0009917  29.1641  55.8360 12.07446350126044
GLOBALSTAR M033         
1 25909U 99049C   24350.87258027 -.00000112  00000+0 -19956-3 0  9997
2 25909  51.9889 144.5351 0011788 242.4060 117.5591 12.20293126513368
GLOBALSTAR M055         
1 25910U 99049D   24351.00491325 -.00000075  00000+0  16574-3 0  9995
2 25910  51.9988 163.8277 0008265 109.1526 251.0221 12.29417104145978
